[
    {
        "Altitude(m)": 617719.7253781225,
        "Argument of Periapsis(deg)": 0.0,
        "Eccentricity": 0.0,
        "Inclination(deg)": 60.0,
        "Latitude(deg)": -41.10251675220982,
        "Longitude(deg)": 60.0946864930098,
        "Mean Anomaly(deg)": -130.9091,
        "RAAN(deg)": 310.0,
        "Satellite Name": "Test1 1378",
        "Satellite Number": 1378,
        "Semi-Major Axis(m)": 6980739.136638005,
        "Time(s)": 0
    },
    {
        "Altitude(m)": 617911.2610403677,
        "Argument of Periapsis(deg)": 0.00010418945913296404,
        "Eccentricity": 0.0,
        "Inclination(deg)": 60.0,
        "Latitude(deg)": -41.56570834379314,
        "Longitude(deg)": 60.59909273231468,
        "Mean Anomaly(deg)": -130.28899385453815,
        "RAAN(deg)": 309.99957995086027,
        "Satellite Name": "Test1 1378",
        "Satellite Number": 1378,
        "Semi-Major Axis(m)": 6980739.136638005,
        "Time(s)": 10
    }
]